LEGION 1                
1 59625U 24081A   26196.19908537  .00001903  00000+0  10012-3 0  9997
2 59625  97.5012 273.7590 0007707 269.7342  90.3008 15.16843583121783
LEGION 2                
1 59626U 24081B   26196.16350189  .00001898  00000+0  99893-4 0  9997
2 59626  97.5012 273.8206 0010219 233.7756 126.2533 15.16822590121788
LEGION 3                
1 60452U 24146A   26196.13881796  .00001540  00000+0  93256-4 0  9999
2 60452  45.0019 240.6907 0008224 333.7706  26.2755 15.15655257106265
LEGION 4                
1 60453U 24146B   26195.80902400  .00001933  00000+0  11348-3 0  9996
2 60453  45.0030 334.3256 0008945 111.3803 248.8031 15.15679876105064
LEGION 5                
1 62900U 25025A   26196.00672823  .00002193  00000+0  12551-3 0  9994
2 62900  45.0002 152.2240 0008282 301.7748  58.2323 15.16074423 78715
LEGION 6                
1 62901U 25025B   26196.00592850  .00001574  00000+0  94903-4 0  9990
2 62901  45.0015  61.3767 0010817 275.6000  84.3645 15.15686965 79853
