{"fetched_at":"2026-07-15T17:47:21.146Z","source":"https://celestrak.org/NORAD/elements/gp.php?NAME=LEGION&FORMAT=JSON","constellation":"maxar-legion","records":[{"OBJECT_NAME":"LEGION 1","OBJECT_ID":"2024-081A","EPOCH":"2026-07-15T04:46:40.975968","CLASSIFICATION_TYPE":"U","MEAN_MOTION":15.16843583,"ECCENTRICITY":0.0007707,"INCLINATION":97.5012,"RA_OF_ASC_NODE":273.759,"ARG_OF_PERICENTER":269.7342,"MEAN_ANOMALY":90.3008,"EPHEMERIS_TYPE":0,"NORAD_CAT_ID":59625,"ELEMENT_SET_NO":999,"REV_AT_EPOCH":12178,"BSTAR":0.00010012,"MEAN_MOTION_DOT":0.00001903,"MEAN_MOTION_DDOT":0},{"OBJECT_NAME":"LEGION 2","OBJECT_ID":"2024-081B","EPOCH":"2026-07-15T03:55:26.563296","CLASSIFICATION_TYPE":"U","MEAN_MOTION":15.1682259,"ECCENTRICITY":0.0010219,"INCLINATION":97.5012,"RA_OF_ASC_NODE":273.8206,"ARG_OF_PERICENTER":233.7756,"MEAN_ANOMALY":126.2533,"EPHEMERIS_TYPE":0,"NORAD_CAT_ID":59626,"ELEMENT_SET_NO":999,"REV_AT_EPOCH":12178,"BSTAR":0.000099893,"MEAN_MOTION_DOT":0.00001898,"MEAN_MOTION_DDOT":0},{"OBJECT_NAME":"LEGION 3","OBJECT_ID":"2024-146A","EPOCH":"2026-07-15T03:19:53.871744","CLASSIFICATION_TYPE":"U","MEAN_MOTION":15.15655257,"ECCENTRICITY":0.0008224,"INCLINATION":45.0019,"RA_OF_ASC_NODE":240.6907,"ARG_OF_PERICENTER":333.7706,"MEAN_ANOMALY":26.2755,"EPHEMERIS_TYPE":0,"NORAD_CAT_ID":60452,"ELEMENT_SET_NO":999,"REV_AT_EPOCH":10626,"BSTAR":0.000093256,"MEAN_MOTION_DOT":0.0000154,"MEAN_MOTION_DDOT":0},{"OBJECT_NAME":"LEGION 4","OBJECT_ID":"2024-146B","EPOCH":"2026-07-14T19:24:59.673600","CLASSIFICATION_TYPE":"U","MEAN_MOTION":15.15679876,"ECCENTRICITY":0.00089457,"INCLINATION":45.003,"RA_OF_ASC_NODE":334.3256,"ARG_OF_PERICENTER":111.3803,"MEAN_ANOMALY":248.8031,"EPHEMERIS_TYPE":0,"NORAD_CAT_ID":60453,"ELEMENT_SET_NO":999,"REV_AT_EPOCH":10506,"BSTAR":0.00011348257,"MEAN_MOTION_DOT":0.00001933,"MEAN_MOTION_DDOT":0},{"OBJECT_NAME":"LEGION 5","OBJECT_ID":"2025-025A","EPOCH":"2026-07-15T00:09:41.319072","CLASSIFICATION_TYPE":"U","MEAN_MOTION":15.16074423,"ECCENTRICITY":0.0008282,"INCLINATION":45.0002,"RA_OF_ASC_NODE":152.224,"ARG_OF_PERICENTER":301.7748,"MEAN_ANOMALY":58.2323,"EPHEMERIS_TYPE":0,"NORAD_CAT_ID":62900,"ELEMENT_SET_NO":999,"REV_AT_EPOCH":7871,"BSTAR":0.00012551,"MEAN_MOTION_DOT":0.00002193,"MEAN_MOTION_DDOT":0},{"OBJECT_NAME":"LEGION 6","OBJECT_ID":"2025-025B","EPOCH":"2026-07-15T00:08:32.222400","CLASSIFICATION_TYPE":"U","MEAN_MOTION":15.15686965,"ECCENTRICITY":0.0010817,"INCLINATION":45.0015,"RA_OF_ASC_NODE":61.3767,"ARG_OF_PERICENTER":275.6,"MEAN_ANOMALY":84.3645,"EPHEMERIS_TYPE":0,"NORAD_CAT_ID":62901,"ELEMENT_SET_NO":999,"REV_AT_EPOCH":7985,"BSTAR":0.000094903,"MEAN_MOTION_DOT":0.00001574,"MEAN_MOTION_DDOT":0}]}
